<?xml version="1.0" encoding="UTF-8"?>
<ndm xmlns:xsi="http://www.w3.org/2001/XMLSchema-instance" xsi:noNamespaceSchemaLocation="https://sanaregistry.org/r/ndmxml_unqualified/ndmxml-2.0.0-master-2.0.xsd">
<omm id="CCSDS_OMM_VERS" version="2.0">
<header><CREATION_DATE/><ORIGINATOR/></header><body><segment><metadata><OBJECT_NAME>ORBCOMM FM24</OBJECT_NAME><OBJECT_ID>1998-053D</OBJECT_ID><CENTER_NAME>EARTH</CENTER_NAME><REF_FRAME>TEME</REF_FRAME><TIME_SYSTEM>UTC</TIME_SYSTEM><MEAN_ELEMENT_THEORY>SGP4</MEAN_ELEMENT_THEORY></metadata><data><meanElements><EPOCH>2024-11-13T09:27:02.035584</EPOCH><MEAN_MOTION>14.36967822</MEAN_MOTION><ECCENTRICITY>.0000974</ECCENTRICITY><INCLINATION>45.0074</INCLINATION><RA_OF_ASC_NODE>211.4568</RA_OF_ASC_NODE><ARG_OF_PERICENTER>237.3920</ARG_OF_PERICENTER><MEAN_ANOMALY>122.6834</MEAN_ANOMALY></meanElements><tleParameters><EPHEMERIS_TYPE>0</EPHEMERIS_TYPE><CLASSIFICATION_TYPE>U</CLASSIFICATION_TYPE><NORAD_CAT_ID>25478</NORAD_CAT_ID><ELEMENT_SET_NO>999</ELEMENT_SET_NO><REV_AT_EPOCH>36639</REV_AT_EPOCH><BSTAR>.10139E-2</BSTAR><MEAN_MOTION_DOT>.289E-4</MEAN_MOTION_DOT><MEAN_MOTION_DDOT>0</MEAN_MOTION_DDOT></tleParameters></data></segment></body></omm>
<omm id="CCSDS_OMM_VERS" version="2.0">
<header><CREATION_DATE/><ORIGINATOR/></header><body><segment><metadata><OBJECT_NAME>ORBCOMM FM25</OBJECT_NAME><OBJECT_ID>1998-053E</OBJECT_ID><CENTER_NAME>EARTH</CENTER_NAME><REF_FRAME>TEME</REF_FRAME><TIME_SYSTEM>UTC</TIME_SYSTEM><MEAN_ELEMENT_THEORY>SGP4</MEAN_ELEMENT_THEORY></metadata><data><meanElements><EPOCH>2024-11-13T10:21:42.132960</EPOCH><MEAN_MOTION>14.36960939</MEAN_MOTION><ECCENTRICITY>.0003403</ECCENTRICITY><INCLINATION>45.0063</INCLINATION><RA_OF_ASC_NODE>209.5312</RA_OF_ASC_NODE><ARG_OF_PERICENTER>248.3150</ARG_OF_PERICENTER><MEAN_ANOMALY>111.7336</MEAN_ANOMALY></meanElements><tleParameters><EPHEMERIS_TYPE>0</EPHEMERIS_TYPE><CLASSIFICATION_TYPE>U</CLASSIFICATION_TYPE><NORAD_CAT_ID>25479</NORAD_CAT_ID><ELEMENT_SET_NO>999</ELEMENT_SET_NO><REV_AT_EPOCH>36669</REV_AT_EPOCH><BSTAR>.94161E-3</BSTAR><MEAN_MOTION_DOT>.2674E-4</MEAN_MOTION_DOT><MEAN_MOTION_DDOT>0</MEAN_MOTION_DDOT></tleParameters></data></segment></body></omm>
<omm id="CCSDS_OMM_VERS" version="2.0">
<header><CREATION_DATE/><ORIGINATOR/></header><body><segment><metadata><OBJECT_NAME>ORBCOMM FM26</OBJECT_NAME><OBJECT_ID>1998-053F</OBJECT_ID><CENTER_NAME>EARTH</CENTER_NAME><REF_FRAME>TEME</REF_FRAME><TIME_SYSTEM>UTC</TIME_SYSTEM><MEAN_ELEMENT_THEORY>SGP4</MEAN_ELEMENT_THEORY></metadata><data><meanElements><EPOCH>2024-11-13T02:30:08.442432</EPOCH><MEAN_MOTION>14.36187821</MEAN_MOTION><ECCENTRICITY>.000554</ECCENTRICITY><INCLINATION>45.0058</INCLINATION><RA_OF_ASC_NODE>206.1079</RA_OF_ASC_NODE><ARG_OF_PERICENTER>267.8099</ARG_OF_PERICENTER><MEAN_ANOMALY>92.2115</MEAN_ANOMALY></meanElements><tleParameters><EPHEMERIS_TYPE>0</EPHEMERIS_TYPE><CLASSIFICATION_TYPE>U</CLASSIFICATION_TYPE><NORAD_CAT_ID>25480</NORAD_CAT_ID><ELEMENT_SET_NO>999</ELEMENT_SET_NO><REV_AT_EPOCH>36657</REV_AT_EPOCH><BSTAR>.8979E-3</BSTAR><MEAN_MOTION_DOT>.2502E-4</MEAN_MOTION_DOT><MEAN_MOTION_DDOT>0</MEAN_MOTION_DDOT></tleParameters></data></segment></body></omm>
<omm id="CCSDS_OMM_VERS" version="2.0">
<header><CREATION_DATE/><ORIGINATOR/></header><body><segment><metadata><OBJECT_NAME>ORBCOMM FM27</OBJECT_NAME><OBJECT_ID>1998-053G</OBJECT_ID><CENTER_NAME>EARTH</CENTER_NAME><REF_FRAME>TEME</REF_FRAME><TIME_SYSTEM>UTC</TIME_SYSTEM><MEAN_ELEMENT_THEORY>SGP4</MEAN_ELEMENT_THEORY></metadata><data><meanElements><EPOCH>2024-11-13T10:06:38.742336</EPOCH><MEAN_MOTION>14.36955222</MEAN_MOTION><ECCENTRICITY>.0000643</ECCENTRICITY><INCLINATION>45.0047</INCLINATION><RA_OF_ASC_NODE>209.8347</RA_OF_ASC_NODE><ARG_OF_PERICENTER>26.9051</ARG_OF_PERICENTER><MEAN_ANOMALY>333.1830</MEAN_ANOMALY></meanElements><tleParameters><EPHEMERIS_TYPE>0</EPHEMERIS_TYPE><CLASSIFICATION_TYPE>U</CLASSIFICATION_TYPE><NORAD_CAT_ID>25481</NORAD_CAT_ID><ELEMENT_SET_NO>999</ELEMENT_SET_NO><REV_AT_EPOCH>36662</REV_AT_EPOCH><BSTAR>.98718E-3</BSTAR><MEAN_MOTION_DOT>.281E-4</MEAN_MOTION_DOT><MEAN_MOTION_DDOT>0</MEAN_MOTION_DDOT></tleParameters></data></segment></body></omm>
<omm id="CCSDS_OMM_VERS" version="2.0">
<header><CREATION_DATE/><ORIGINATOR/></header><body><segment><metadata><OBJECT_NAME>ORBCOMM FM28</OBJECT_NAME><OBJECT_ID>1998-053H</OBJECT_ID><CENTER_NAME>EARTH</CENTER_NAME><REF_FRAME>TEME</REF_FRAME><TIME_SYSTEM>UTC</TIME_SYSTEM><MEAN_ELEMENT_THEORY>SGP4</MEAN_ELEMENT_THEORY></metadata><data><meanElements><EPOCH>2024-11-13T13:34:17.387328</EPOCH><MEAN_MOTION>14.37258982</MEAN_MOTION><ECCENTRICITY>.0003472</ECCENTRICITY><INCLINATION>45.0037</INCLINATION><RA_OF_ASC_NODE>147.0581</RA_OF_ASC_NODE><ARG_OF_PERICENTER>287.4136</ARG_OF_PERICENTER><MEAN_ANOMALY>72.6332</MEAN_ANOMALY></meanElements><tleParameters><EPHEMERIS_TYPE>0</EPHEMERIS_TYPE><CLASSIFICATION_TYPE>U</CLASSIFICATION_TYPE><NORAD_CAT_ID>25482</NORAD_CAT_ID><ELEMENT_SET_NO>999</ELEMENT_SET_NO><REV_AT_EPOCH>36732</REV_AT_EPOCH><BSTAR>.89029E-3</BSTAR><MEAN_MOTION_DOT>.2536E-4</MEAN_MOTION_DOT><MEAN_MOTION_DDOT>0</MEAN_MOTION_DDOT></tleParameters></data></segment></body></omm>
<omm id="CCSDS_OMM_VERS" version="2.0">
<header><CREATION_DATE/><ORIGINATOR/></header><body><segment><metadata><OBJECT_NAME>ORBCOMM FM30</OBJECT_NAME><OBJECT_ID>1999-065A</OBJECT_ID><CENTER_NAME>EARTH</CENTER_NAME><REF_FRAME>TEME</REF_FRAME><TIME_SYSTEM>UTC</TIME_SYSTEM><MEAN_ELEMENT_THEORY>SGP4</MEAN_ELEMENT_THEORY></metadata><data><meanElements><EPOCH>2024-11-13T12:50:33.421056</EPOCH><MEAN_MOTION>14.36339026</MEAN_MOTION><ECCENTRICITY>.0005627</ECCENTRICITY><INCLINATION>45.0326</INCLINATION><RA_OF_ASC_NODE>29.7795</RA_OF_ASC_NODE><ARG_OF_PERICENTER>347.9645</ARG_OF_PERICENTER><MEAN_ANOMALY>12.1068</MEAN_ANOMALY></meanElements><tleParameters><EPHEMERIS_TYPE>0</EPHEMERIS_TYPE><CLASSIFICATION_TYPE>U</CLASSIFICATION_TYPE><NORAD_CAT_ID>25980</NORAD_CAT_ID><ELEMENT_SET_NO>999</ELEMENT_SET_NO><REV_AT_EPOCH>30343</REV_AT_EPOCH><BSTAR>.92004E-3</BSTAR><MEAN_MOTION_DOT>.2575E-4</MEAN_MOTION_DOT><MEAN_MOTION_DDOT>0</MEAN_MOTION_DDOT></tleParameters></data></segment></body></omm>
<omm id="CCSDS_OMM_VERS" version="2.0">
<header><CREATION_DATE/><ORIGINATOR/></header><body><segment><metadata><OBJECT_NAME>ORBCOMM FM31</OBJECT_NAME><OBJECT_ID>1999-065B</OBJECT_ID><CENTER_NAME>EARTH</CENTER_NAME><REF_FRAME>TEME</REF_FRAME><TIME_SYSTEM>UTC</TIME_SYSTEM><MEAN_ELEMENT_THEORY>SGP4</MEAN_ELEMENT_THEORY></metadata><data><meanElements><EPOCH>2024-11-13T13:43:40.051776</EPOCH><MEAN_MOTION>14.36318325</MEAN_MOTION><ECCENTRICITY>.0002461</ECCENTRICITY><INCLINATION>45.0240</INCLINATION><RA_OF_ASC_NODE>23.1833</RA_OF_ASC_NODE><ARG_OF_PERICENTER>358.2840</ARG_OF_PERICENTER><MEAN_ANOMALY>1.8000</MEAN_ANOMALY></meanElements><tleParameters><EPHEMERIS_TYPE>0</EPHEMERIS_TYPE><CLASSIFICATION_TYPE>U</CLASSIFICATION_TYPE><NORAD_CAT_ID>25981</NORAD_CAT_ID><ELEMENT_SET_NO>999</ELEMENT_SET_NO><REV_AT_EPOCH>30299</REV_AT_EPOCH><BSTAR>.9483E-3</BSTAR><MEAN_MOTION_DOT>.2657E-4</MEAN_MOTION_DOT><MEAN_MOTION_DDOT>0</MEAN_MOTION_DDOT></tleParameters></data></segment></body></omm>
<omm id="CCSDS_OMM_VERS" version="2.0">
<header><CREATION_DATE/><ORIGINATOR/></header><body><segment><metadata><OBJECT_NAME>ORBCOMM FM32</OBJECT_NAME><OBJECT_ID>1999-065C</OBJECT_ID><CENTER_NAME>EARTH</CENTER_NAME><REF_FRAME>TEME</REF_FRAME><TIME_SYSTEM>UTC</TIME_SYSTEM><MEAN_ELEMENT_THEORY>SGP4</MEAN_ELEMENT_THEORY></metadata><data><meanElements><EPOCH>2024-11-13T13:02:28.129632</EPOCH><MEAN_MOTION>14.35337938</MEAN_MOTION><ECCENTRICITY>.0004071</ECCENTRICITY><INCLINATION>45.0164</INCLINATION><RA_OF_ASC_NODE>38.4323</RA_OF_ASC_NODE><ARG_OF_PERICENTER>16.5802</ARG_OF_PERICENTER><MEAN_ANOMALY>343.5178</MEAN_ANOMALY></meanElements><tleParameters><EPHEMERIS_TYPE>0</EPHEMERIS_TYPE><CLASSIFICATION_TYPE>U</CLASSIFICATION_TYPE><NORAD_CAT_ID>25982</NORAD_CAT_ID><ELEMENT_SET_NO>999</ELEMENT_SET_NO><REV_AT_EPOCH>30373</REV_AT_EPOCH><BSTAR>.10273E-2</BSTAR><MEAN_MOTION_DOT>.2832E-4</MEAN_MOTION_DOT><MEAN_MOTION_DDOT>0</MEAN_MOTION_DDOT></tleParameters></data></segment></body></omm>

</ndm>
