ORBCOMM FM24            
1 25478U 98053D   24318.39377356  .00002890  00000+0  10139-2 0  9996
2 25478  45.0074 211.4568 0000974 237.3920 122.6834 14.36967822366392
ORBCOMM FM25            
1 25479U 98053E   24318.43173765  .00002674  00000+0  94161-3 0  9998
2 25479  45.0063 209.5312 0003403 248.3150 111.7336 14.36960939366694
ORBCOMM FM26            
1 25480U 98053F   24318.10426438  .00002502  00000+0  89790-3 0  9994
2 25480  45.0058 206.1079 0005540 267.8099  92.2115 14.36187821366571
ORBCOMM FM27            
1 25481U 98053G   24318.42128174  .00002810  00000+0  98718-3 0  9998
2 25481  45.0047 209.8347 0000643  26.9051 333.1830 14.36955222366624
ORBCOMM FM28            
1 25482U 98053H   24318.56547902  .00002536  00000+0  89029-3 0  9998
2 25482  45.0037 147.0581 0003472 287.4136  72.6332 14.37258982367328
ORBCOMM FM30            
1 25980U 99065A   24318.53510904  .00002575  00000+0  92004-3 0  9994
2 25980  45.0326  29.7795 0005627 347.9645  12.1068 14.36339026303431
ORBCOMM FM31            
1 25981U 99065B   24318.57199134  .00002657  00000+0  94830-3 0  9997
2 25981  45.0240  23.1833 0002461 358.2840   1.8000 14.36318325302993
ORBCOMM FM32            
1 25982U 99065C   24318.54338113  .00002832  00000+0  10273-2 0  9990
2 25982  45.0164  38.4323 0004071  16.5802 343.5178 14.35337938303738
